STARLINK-34041          
1 63844U 25093J   26073.10259738  .00023536  00000+0  86167-3 0  9996
2 63844  42.9987  53.2783 0001115 248.9341 111.1391 15.27596082 48647
STARLINK-34011          
1 63845U 25093K   26072.32566972  .00035522  00000+0  12929-2 0  9993
2 63845  43.0019  57.7703 0001088 256.2469 103.8262 15.27611351 48304
STARLINK-34044          
1 63846U 25093L   26073.91149802  .00028459  00000+0  10387-2 0  9996
2 63846  43.0030  48.1716 0001731 311.4178  48.6525 15.27612136 48559
STARLINK-34037          
1 63847U 25093M   26072.28711768  .00021131  00000+0  77486-3 0  9996
2 63847  43.0054  57.4750 0001909 252.3565 107.7078 15.27594193 48526
STARLINK-34010          
1 63848U 25093N   26073.92818260  .00035554  00000+0  12922-2 0  9991
2 63848  42.9997  48.2819 0003025 176.8564 183.2307 15.27656358 48554
STARLINK-34009          
1 63849U 25093P   26073.94796196  .00033662  00000+0  12263-2 0  9993
2 63849  42.9992  44.9750 0000598 265.5664  94.5119 15.27602846 48813
STARLINK-33958          
1 63850U 25093Q   26072.31925849  .00028849  00000+0  10525-2 0  9994
2 63850  43.0015  57.7196 0001245 248.5550 111.5169 15.27619456 48364
STARLINK-33776          
1 63851U 25093R   26073.91536029  .00029209  00000+0  10661-2 0  9992
2 63851  43.0037  48.1927 0000589  33.1671 326.9218 15.27601005 48769
STARLINK-34032          
1 63853U 25093T   26073.91791945  .00032163  00000+0  11719-2 0  9992
2 63853  43.0057  48.1942 0003080 277.1343  82.9158 15.27613725 48770
STARLINK-34015          
1 63854U 25093U   26073.43338045  .00023635  00000+0  86498-3 0  9999
2 63854  43.0004  51.4381 0000824 240.5087 119.5682 15.27604926 48535
STARLINK-33969          
1 63855U 25093V   26073.92562847  .00040053  00000+0  14553-2 0  9998
2 63855  43.0045  48.2506 0000897 221.9039 138.1744 15.27622146 48556
STARLINK-34002          
1 63856U 25093W   26073.93462338  .00026703  00000+0  97515-3 0  9990
2 63856  43.0031  48.3190 0001567 255.5109 104.5569 15.27621888 48552
STARLINK-33999          
1 63857U 25093X   26073.92048647  .00035680  00000+0  12984-2 0  9993
2 63857  43.0024  48.1953 0001104 274.4842  85.5884 15.27616010 48774
STARLINK-33976          
1 63858U 25093Y   26073.92947601  .00035802  00000+0  13020-2 0  9990
2 63858  43.0004  48.2593 0001466 236.3955 123.6757 15.27637302 48610
STARLINK-33821          
1 63859U 25093Z   26073.94361223  .00029293  00000+0  10691-2 0  9991
2 63859  42.9972  48.3602 0002600 280.9200  79.1359 15.27600007 48754
STARLINK-33888          
1 63860U 25093AA  26073.93590532  .00031810  00000+0  11593-2 0  9999
2 63860  42.9964  48.3223 0001586 141.8718 218.2246 15.27614482 48772
STARLINK-33896          
1 63861U 25093AB  26073.94104793  .00026981  00000+0  98599-3 0  9996
2 63861  42.9996  48.3682 0000594 259.0502 101.0283 15.27593711 48555
STARLINK-33878          
1 63862U 25093AC  26073.94232521  .00034804  00000+0  12662-2 0  9997
2 63862  43.0016  48.3489 0001603 244.6539 115.4147 15.27634574 48762
STARLINK-33954          
1 63863U 25093AD  26073.95004126  .00038564  00000+0  14033-2 0  9998
2 63863  42.9991  48.4321 0001161 265.4766  94.5953 15.27587068 48555
STARLINK-33863          
1 63864U 25094A   26073.86630991  .00008393  00000+0  71015-3 0  9996
2 63864  70.0006 221.6062 0002846 269.6335  90.4498 14.98339756 47971
STARLINK-33897          
1 63865U 25094B   26073.83710372  .00006584  00000+0  55888-3 0  9996
2 63865  70.0010 221.4994 0003224 273.2197  86.8593 14.98344905 48199
STARLINK-34022          
1 63866U 25094C   26073.71624654  .00008687  00000+0  73442-3 0  9993
2 63866  70.0017 221.8769 0002381 263.9575  96.1313 14.98359057 47951
STARLINK-33979          
1 63867U 25094D   26073.64096827 -.00059850  00000+0 -50430-2 0  9992
2 63867  70.0018 222.0231 0002685 236.1488 123.9416 14.98392757 47948
STARLINK-34007          
1 63868U 25094E   26073.72860916 -.00019764  00000+0 -16521-2 0  9993
2 63868  70.0024 221.9243 0002626 252.7971 107.2901 14.98358114 47957
STARLINK-34006          
1 63869U 25094F   26073.82055933  .00004584  00000+0  39163-3 0  9990
2 63869  70.0005 221.4416 0003381 266.5438  93.5335 14.98341503 47978
STARLINK-33986          
1 63870U 25094G   26073.82874990 -.00079433  00000+0 -67159-2 0  9996
2 63870  70.0002 221.4655 0003274 260.9201  99.1588 14.98382105 47974
STARLINK-34013          
1 63871U 25094H   26073.81622048  .00006088  00000+0  51748-3 0  9993
2 63871  70.0023 221.4303 0002919 261.9710  98.1118 14.98337595 47970
STARLINK-34059          
1 63872U 25094J   26073.72446997  .00011429  00000+0  96259-3 0  9992
2 63872  70.0015 221.9109 0002761 257.8989 102.1861 14.98390846 47955
STARLINK-33987          
1 63873U 25094K   26073.82456950  .00008492  00000+0  71832-3 0  9990
2 63873  70.0011 221.4561 0003362 272.7932  87.2843 14.98345566 47975
STARLINK-34052          
1 63874U 25094L   26073.72026649  .00006897  00000+0  58500-3 0  9992
2 63874  70.0009 221.8921 0003274 272.2934  87.7850 14.98346680 47955
