OBJECT_NAME,OBJECT_ID,EPOCH,MEAN_MOTION,ECCENTRICITY,INCLINATION,RA_OF_ASC_NODE,ARG_OF_PERICENTER,MEAN_ANOMALY,EPHEMERIS_TYPE,CLASSIFICATION_TYPE,NORAD_CAT_ID,ELEMENT_SET_NO,REV_AT_EPOCH,BSTAR,MEAN_MOTION_DOT,MEAN_MOTION_DDOT
STARLINK-34041,2025-093J,2026-03-14T02:27:44.413632,15.27596082,.00011154,42.9987,53.2783,248.9341,111.1391,0,U,63844,999,4864,.86166513E-3,.23536E-3,0
STARLINK-34011,2025-093K,2026-03-13T07:48:57.863808,15.27611351,.00010885,43.0019,57.7703,256.2469,103.8262,0,U,63845,999,4830,.12929305E-2,.35522E-3,0
STARLINK-34044,2025-093L,2026-03-14T21:52:33.428928,15.27612136,.0001731,43.0030,48.1716,311.4178,48.6525,0,U,63846,999,4855,.10386745E-2,.28459E-3,0
STARLINK-34037,2025-093M,2026-03-13T06:53:26.967552,15.27594193,.00019099,43.0054,57.4750,252.3565,107.7078,0,U,63847,999,4852,.77486469E-3,.21131E-3,0
STARLINK-34010,2025-093N,2026-03-14T22:16:34.976640,15.27656358,.00030256,42.9997,48.2819,176.8564,183.2307,0,U,63848,999,4855,.12922208E-2,.35554E-3,0
STARLINK-34009,2025-093P,2026-03-14T22:45:03.913344,15.27602846,.00005988,42.9992,44.9750,265.5664,94.5119,0,U,63849,999,4881,.12263481E-2,.33662E-3,0
STARLINK-33958,2025-093Q,2026-03-13T07:39:43.933536,15.27619456,.00012453,43.0015,57.7196,248.5550,111.5169,0,U,63850,999,4836,.10525074E-2,.28849E-3,0
STARLINK-33776,2025-093R,2026-03-14T21:58:07.129056,15.27601005,.00005892,43.0037,48.1927,33.1671,326.9218,0,U,63851,999,4876,.10660877E-2,.29209E-3,0
STARLINK-34032,2025-093T,2026-03-14T22:01:48.240480,15.27613725,.00030804,43.0057,48.1942,277.1343,82.9158,0,U,63853,999,4877,.11719339E-2,.32163E-3,0
STARLINK-34015,2025-093U,2026-03-14T10:24:04.070880,15.27604926,.00008246,43.0004,51.4381,240.5087,119.5682,0,U,63854,999,4853,.86498032E-3,.23635E-3,0
STARLINK-33969,2025-093V,2026-03-14T22:12:54.299808,15.27622146,.00008976,43.0045,48.2506,221.9039,138.1744,0,U,63855,999,4855,.14552729E-2,.40053E-3,0
STARLINK-34002,2025-093W,2026-03-14T22:25:51.460032,15.27621888,.00015673,43.0031,48.3190,255.5109,104.5569,0,U,63856,999,4855,.97514578E-3,.26703E-3,0
STARLINK-33999,2025-093X,2026-03-14T22:05:30.031008,15.27616010,.00011047,43.0024,48.1953,274.4842,85.5884,0,U,63857,999,4877,.1298445E-2,.3568E-3,0
STARLINK-33976,2025-093Y,2026-03-14T22:18:26.727264,15.27637302,.00014664,43.0004,48.2593,236.3955,123.6757,0,U,63858,999,4861,.13019619E-2,.35802E-3,0
STARLINK-33821,2025-093Z,2026-03-14T22:38:48.096672,15.27600007,.00026004,42.9972,48.3602,280.9200,79.1359,0,U,63859,999,4875,.1069064E-2,.29293E-3,0
STARLINK-33888,2025-093AA,2026-03-14T22:27:42.219648,15.27614482,.00015862,42.9964,48.3223,141.8718,218.2246,0,U,63860,999,4877,.11592599E-2,.3181E-3,0
STARLINK-33896,2025-093AB,2026-03-14T22:35:06.541152,15.27593711,.00005942,42.9996,48.3682,259.0502,101.0283,0,U,63861,999,4855,.98598698E-3,.26981E-3,0
STARLINK-33878,2025-093AC,2026-03-14T22:36:56.898144,15.27634574,.00016037,43.0016,48.3489,244.6539,115.4147,0,U,63862,999,4876,.1266198E-2,.34804E-3,0
STARLINK-33954,2025-093AD,2026-03-14T22:48:03.564864,15.27587068,.00011617,42.9991,48.4321,265.4766,94.5953,0,U,63863,999,4855,.14032855E-2,.38564E-3,0
STARLINK-33863,2025-094A,2026-03-14T20:47:29.176224,14.98339756,.00028469,70.0006,221.6062,269.6335,90.4498,0,U,63864,999,4797,.71015381E-3,.8393E-4,0
STARLINK-33897,2025-094B,2026-03-14T20:05:25.761408,14.98344905,.00032241,70.0010,221.4994,273.2197,86.8593,0,U,63865,999,4819,.55888014E-3,.6584E-4,0
STARLINK-34022,2025-094C,2026-03-14T17:11:23.701056,14.98359057,.00023814,70.0017,221.8769,263.9575,96.1313,0,U,63866,999,4795,.73442194E-3,.8687E-4,0
STARLINK-33979,2025-094D,2026-03-14T15:22:59.658528,14.98392757,.00026857,70.0018,222.0231,236.1488,123.9416,0,U,63867,999,4794,-.50429735E-2,-.5985E-3,0
STARLINK-34007,2025-094E,2026-03-14T17:29:11.831424,14.98358114,.00026266,70.0024,221.9243,252.7971,107.2901,0,U,63868,999,4795,-.1652115E-2,-.19764E-3,0
STARLINK-34006,2025-094F,2026-03-14T19:41:36.326112,14.98341503,.0003381,70.0005,221.4416,266.5438,93.5335,0,U,63869,999,4797,.39163453E-3,.4584E-4,0
STARLINK-33986,2025-094G,2026-03-14T19:53:23.991360,14.98382105,.00032744,70.0002,221.4655,260.9201,99.1588,0,U,63870,999,4797,-.67158526E-2,-.79433E-3,0
STARLINK-34013,2025-094H,2026-03-14T19:35:21.449472,14.98337595,.00029196,70.0023,221.4303,261.9710,98.1118,0,U,63871,999,4797,.51747702E-3,.6088E-4,0
STARLINK-34059,2025-094J,2026-03-14T17:23:14.205408,14.98390846,.00027613,70.0015,221.9109,257.8989,102.1861,0,U,63872,999,4795,.96259231E-3,.11429E-3,0
STARLINK-33987,2025-094K,2026-03-14T19:47:22.804800,14.98345566,.0003362,70.0011,221.4561,272.7932,87.2843,0,U,63873,999,4797,.71832148E-3,.8492E-4,0
STARLINK-34052,2025-094L,2026-03-14T17:17:11.024736,14.98346680,.00032743,70.0009,221.8921,272.2934,87.7850,0,U,63874,999,4795,.58499868E-3,.6897E-4,0
